GAOFEN-1 04             
1 43262U 18031D   25302.49182080  .00001332  00000+0  19907-3 0  9991
2 43262  98.0871   0.2945 0001838 111.0627 249.0779 14.76428084408644
SENTINEL-3B             
1 43437U 18039A   25302.46234405  .00000200  00000+0  10065-3 0  9998
2 43437  98.6320   8.2700 0000731 127.7614 232.3633 14.26734867391224
GAOFEN-5 01             
1 43461U 18043A   25302.45558308  .00000797  00000+0  17503-3 0  9995
2 43461  98.4257 264.6679 0003060  79.9659 280.1886 14.60334144398013
GAOFEN-6                
1 43484U 18048A   25302.53540209  .00001169  00000+0  17453-3 0  9993
2 43484  97.8085   8.2715 0011248 195.0798 165.0078 14.76553038399358
GAOFEN-11 01            
1 43585U 18063A   25302.48414872  .00018756  00000+0  36625-3 0  9994
2 43585  97.1621   5.8288 0007408 102.1295 258.0786 15.47494000404573
ICESAT-2                
1 43613U 18070A   25302.47266350  .00018288  00000+0  66214-3 0  9996
2 43613  92.0025 228.7919 0006660  49.8537 310.3294 15.28325231397226
HYSIS                   
1 43719U 18096A   25302.52227039  .00001774  00000+0  24920-3 0  9998
2 43719  98.0153   5.7033 0001453 120.2685 239.8669 14.78651691373337
KAZSTSAT                
1 43783U 18099AB  25302.41798589  .00001103  00000+0  95206-4 0  9995
2 43783  97.4596 339.5126 0007987  92.3171 267.8967 14.99147240376721
SAUDISAT 5A             
1 43831U 18102A   25302.50752882  .00008623  00000+0  34949-3 0  9990
2 43831  97.3413   3.5623 0009269 223.3217 136.7293 15.24849791380487
SAUDISAT 5B             
1 43833U 18102C   25302.50857219  .00007974  00000+0  31975-3 0  9996
2 43833  97.3502   6.2226 0009892 226.8283 133.2129 15.25226494380592
GAOFEN-10R              
1 44622U 19066A   25302.52533061  .00002423  00000+0  30623-3 0  9994
2 44622  98.0201 249.8771 0007666 158.1538 202.0003 14.82787755328198
CARTOSAT-3              
1 44804U 19081A   25301.64478304  .00006618  00000+0  31537-3 0  9998
2 44804  97.4642   1.7832 0013054 237.6322 122.3650 15.19378087328318
GAOFEN-12 01            
1 44819U 19082A   25302.47786079  .00000751  00000+0  10459-3 0  9990
2 44819  97.8146 309.9176 0003704  54.8535 305.3024 14.80578988319954
CSG-1                   
1 44873U 19092A   25302.50299400  .00000877  00000+0  11667-3 0  9993
2 44873  97.8889 124.4791 0001551  84.1086 276.0304 14.82157340317305
NEMO-HD                 
1 46277U 20061F   25302.43542985  .00013725  00000+0  35695-3 0  9995
2 46277  97.2273   2.1236 0002387 118.4154 241.7333 15.39028505286429
SENTINEL-6              
1 46984U 20086A   25302.21494838 -.00000038  00000+0  10125-3 0  9991
2 46984  66.0405 254.7840 0007938 268.6815  91.3291 12.80928984230749
GAOFEN-12 02            
1 48079U 21026A   25302.54393560  .00000767  00000+0  10683-3 0  9996
2 48079  97.9840 296.7678 0000892 227.9422 132.1714 14.80594473247635
PLEIADES NEO 3          
1 48268U 21034A   25302.35963598  .00001746  00000+0  22838-3 0  9991
2 48268  97.8951  15.4372 0001289  94.0642 266.0718 14.81689778243475
PLEIADES NEO 4          
1 49070U 21073E   25302.52846171  .00000954  00000+0  12780-3 0  9997
2 49070  97.8953  15.5996 0001233 102.0499 258.0852 14.81670210227216
LANDSAT 9               
1 49260U 21088A   25302.46753064  .00000623  00000+0  14824-3 0  9999
2 49260  98.2142  11.2085 0001202  88.4494 271.6842 14.57130794217403
CSG-2                   
1 51444U 22008A   25302.53676625  .00000644  00000+0  87470-4 0  9995
2 51444  97.8891 124.5171 0001458  86.1926 273.9453 14.82143571202422
GAOFEN-12 03            
1 52912U 22069A   25302.54356152  .00002069  00000+0  28266-3 0  9994
2 52912  97.8501 190.9089 0001602  80.0378 280.1014 14.79635998180503
SWOT                    
1 54754U 22173A   25302.47688184  .00000053  00000+0  37371-4 0  9990
2 54754  77.6116 346.7477 0000313 226.7729 133.3397 14.00171072146862
GAOFEN-12 04            
1 57654U 23123A   25302.51189647  .00002012  00000+0  27604-3 0  9997
2 57654  97.9081 218.9566 0001762  83.3904 276.7508 14.79497248118519
PARS 1                  
1 59065U 24039Q   25302.55709701  .00014097  00000+0  35932-3 0  9994
2 59065  97.4584 272.6143 0008944 217.8715 142.1902 15.39612955 93080
RESURS-P 4              
1 59371U 24061A   25302.50203516  .00006229  00000+0  19569-3 0  9993
2 59371  97.2469 249.7320 0003457  96.5259 263.6377 15.33341462 88435
LEGION 1                
1 59625U 24081A   25302.46647273  .00006878  00000+0  34885-3 0  9992
2 59625  97.5247  17.4501 0003085 169.5060 190.6238 15.17252888 82561
LEGION 2                
1 59626U 24081B   25302.49872946  .00007465  00000+0  37855-3 0  9996
2 59626  97.5251  17.5693 0003145 117.8480 242.3072 15.17235062 82576
ALOS-4 (DAICHI-4)       
1 60182U 24123A   25302.53046992  .00002760  00000+0  37629-3 0  9993
2 60182  97.9225  38.0033 0001455 100.7617 259.3758 14.79473580 71776
LEGION 3                
1 60452U 24146A   25302.39842799  .00007256  00000+0  37780-3 0  9994
2 60452  44.9999 187.7973 0017405 324.1033  35.8676 15.16523173 67000
LEGION 4                
1 60453U 24146B   25302.39970558  .00008789  00000+0  45607-3 0  9999
2 60453  45.0378 279.3967 0011379  23.1017 337.0371 15.16483258 65856
SENTINEL-2C             
1 60989U 24157A   25302.47339771  .00000207  00000+0  95488-4 0  9990
2 60989  98.5646  15.6166 0000917  97.4336 262.6951 14.30817719 59990
IONOSFERA-M 1           
1 61735U 24199A   25302.52089863  .00000095  00000+0  62165-4 0  9997
2 61735  98.7452 172.6996 0002087  84.5241 275.6175 14.22699178 94904
IONOSFERA-M 2           
1 61736U 24199B   25302.55560194  .00000075  00000+0  53280-4 0  9998
2 61736  98.7450 172.6470 0000243  50.6867 309.4332 14.22701048 98039
BIOMASS                 
1 63772U 25090A   25301.48222566  .00002108  00000+0  37706-3 0  9993
2 63772  98.0738 127.1408 0001686 119.8724 240.2649 14.67908147 26707
GOSAT-GW (IBUKI GW)     
1 64694U 25141A   25301.44210690  .00001623  00000+0  29427-3 0  9997
2 64694  98.0351 237.7914 0001381  83.1405 276.9957 14.67572644 17856
IONOSFERA-M 3           
1 64876U 25155A   25302.50719833  .00000123  00000+0  76003-4 0  9992
2 64876  98.5716 265.6399 0001825 129.2070 230.9270 14.21424363 13632
IONOSFERA-M 4           
1 64877U 25155B   25302.47190380  .00000127  00000+0  77847-4 0  9990
2 64877  98.5714 265.5258 0001509 109.6674 250.4667 14.21425169 13626
MICROCARB               
1 64899U 25156A   25302.46641615  .00000995  00000+0  16649-3 0  9991
2 64899  98.0062  18.5162 0015106 291.2349  68.7244 14.71947038 14021
CO3D 3                  
1 64900U 25156B   25302.47876873  .00002804  00000+0  13259-3 0  9996
2 64900  97.4345  19.4811 0001240 247.3389 112.7715 15.20199990 14486
CO3D 4                  
1 64901U 25156C   25301.55740575  .00005243  00000+0  24510-3 0  9996
2 64901  97.4342  18.5727 0001030  13.0367 347.0894 15.20207223 14346
CO3D 2                  
1 64902U 25156D   25302.51140159  .00003414  00000+0  16077-3 0  9993
2 64902  97.4346  19.4116 0000782 217.6860 142.4321 15.20200507 14481
CO3D 1                  
1 64903U 25156E   25302.51155027  .00000034  00000+0  47017-5 0  9999
2 64903  97.4347  19.4120 0000951 219.3981 140.7185 15.20182374 14489
